[{"OBJECT_NAME":"SITRO-AIS 8 (ANOKHIN)","OBJECT_ID":"2023-091AD","EPOCH":"2026-03-09T23:44:40.058592","MEAN_MOTION":15.29359179,"ECCENTRICITY":0.0012509,"INCLINATION":97.5169,"RA_OF_ASC_NODE":133.2823,"ARG_OF_PERICENTER":92.0171,"MEAN_ANOMALY":268.2501,"EPHEMERIS_TYPE":0,"CLASSIFICATION_TYPE":"U","NORAD_CAT_ID":57193,"ELEMENT_SET_NO":999,"REV_AT_EPOCH":14927,"BSTAR":0.00064982524,"MEAN_MOTION_DOT":0.00018494,"MEAN_MOTION_DDOT":0},{"OBJECT_NAME":"STARLINK-32769","OBJECT_ID":"2025-008R","EPOCH":"2026-03-09T22:32:12.011424","MEAN_MOTION":15.27588348,"ECCENTRICITY":0.0001602,"INCLINATION":42.9992,"RA_OF_ASC_NODE":276.4122,"ARG_OF_PERICENTER":259.1156,"MEAN_ANOMALY":100.9515,"EPHEMERIS_TYPE":0,"CLASSIFICATION_TYPE":"U","NORAD_CAT_ID":62602,"ELEMENT_SET_NO":999,"REV_AT_EPOCH":6566,"BSTAR":0.001053351,"MEAN_MOTION_DOT":0.00028845,"MEAN_MOTION_DDOT":0}]
